AUTCUBE 2               
1 43681U 18084K   26068.48152820  .00005282  00000+0  33524-3 0  9991
2 43681  98.0799 269.3640 0009685  28.2406 331.9345 15.09319394401889
STARLINK-3201           
1 49771U 21115AZ  26068.46996695 -.00000157  00000+0  82301-5 0  9996
2 49771  53.2162 140.1106 0001314  83.0787 277.0355 15.08836744235649
